RADUGA 32               
1 23448U 94087A   09010.64737545 -.00000060  00000-0  10000-3 0   981
2 23448   9.8771  54.1543 0005467 152.6013 207.4331  1.00278494 69108
RADUGA-1 4              
1 25642U 99010A   09010.60976827 -.00000324  00000-0  10000-3 0  2147
2 25642   8.4855  71.3892 0004671 158.0979 201.8700  1.00330953 36144
RADUGA-1 5              
1 26477U 00049A   09010.62301307  .00000133  00000-0  10000-3 0  4537
2 26477   6.1186  69.1371 0004236 209.8226 100.1526  1.00262440 30648
RADUGA-1 7              
1 28194U 04010A   09010.95110870 -.00000189  00000-0  10000-3 0  1827
2 28194   3.4298  88.3077 0002428 196.1695 253.8318  1.00275137 17563
RADUGA-1M 1             
1 32373U 07058A   09010.79929154 -.00000036  00000-0  10000-3 0  3284
2 32373   0.0288 233.8273 0002271  21.2335 213.0154  1.00268875  4898
